#cP2023  5 15  0  0  0.00000000      96 ORBIT IGS20 HLM  IGS
## 2262  86400.00000000   900.00000000 60079 0.0000000000000
+   32   G01G02G03G04G05G06G07G08G09G10G11G12G13G14G15G16G17
+        G18G19G20G21G22G23G24G25G26G27G28G29G30G31G32  0  0
+          0  0  0  0  0  0  0  0  0  0  0  0  0  0  0  0  0
+          0  0  0  0  0  0  0  0  0  0  0  0  0  0  0  0  0
+          0  0  0  0  0  0  0  0  0  0  0  0  0  0  0  0  0
++         2  2  2  2  2  2  2  2  2  2  2  2  2  2  3  2  2
++         2  2  2  2  3  2  2  2  2  2  2  2  2  2  2  0  0
++         0  0  0  0  0  0  0  0  0  0  0  0  0  0  0  0  0
++         0  0  0  0  0  0  0  0  0  0  0  0  0  0  0  0  0
++         0  0  0  0  0  0  0  0  0  0  0  0  0  0  0  0  0
%c G  cc GPS ccc cccc cccc cccc cccc ccccc ccccc ccccc ccccc
%c cc cc ccc ccc cccc cccc cccc cccc ccccc ccccc ccccc ccccc
%f  1.2500000  1.025000000  0.00000000000  0.000000000000000
%f  0.0000000  0.000000000  0.00000000000  0.000000000000000
%i    0    0    0    0      0      0      0      0         0
%i    0    0    0    0      0      0      0      0         0
/* RAPID ORBIT COMBINATION FROM WEIGHTED AVERAGE OF:        
/* cod emr esa gfz grg jpl ngs sio usn whu                  
/* REFERENCED TO IGS TIME (IGST) AND TO WEIGHTED MEAN POLE: 
/* PCV:IGS20_2233 OL/AL:FES2014b NONE     Y  ORB:CMB CLK:CMB
*  2023  5 15  2 15  0.00000000
PG01 -13920.749817  20015.574215   9755.579754    185.285169  7  5  4 104       
PG02 -12739.502846 -10317.611170  21556.109268   -596.127441  5  6  5  71       
PG03 -19286.425282  12816.305575 -13028.256677   -303.024723  6  6  5 108       
PG04  -8680.681022  12978.851738 -21459.595089     41.690698  3  5  7 112       
PG05  26104.787604  -4524.331750  -2812.731051   -127.229709  7  8  4  92       
PG06   7691.685724  16474.957103 -19264.584552    588.038070  4  6  4  95       
PG07  -5310.697563  25449.173322   4402.228967    178.017634  7  7  5 109       
PG08 -17544.664621   1677.267117  19912.776232   -122.466685  5  5  4 108       
PG09   1569.812324  19951.887111 -17510.035448   -158.663387  4  5  3  96       
PG10 -10922.365171 -12267.057716  21116.638404    -36.955954  6  4  5 101       
PG11  15390.936805   1657.163421 -21572.527434   -197.204622  5  7  6  93       
PG12  21874.632920 -10504.191889 -10976.371987   -376.134963  8  7  4  93       
PG13  18896.262377   7238.275551  17134.923224    520.058583  3  5  4  81       
PG14   7384.767165  14179.547976  21239.172252     57.180704  4  6  6  86       
PG15  17132.072859  -4346.612238  19441.784547     39.615760  5  5  5  91       
PG16 -26226.815596  -1053.780551  -5723.136632   -500.935552  7  6  7 105       
PG17  12533.530001  22693.430410   5940.560248    714.817800  5  5  6 111       
PG18   3787.038460 -25192.239540   7226.296668   -266.625775  6  6  6 105       
PG19  17272.794396  20103.081871  -3635.920655    317.007083  6  6  6  93       
PG20  23751.345378   -181.129433 -11652.092325    433.535362  8  8  6  91       
PG21 -15702.442660  12144.031614  17759.643677    153.813936  7  4  4  78       
PG22 -18463.349254 -18216.666715  -5644.673678    481.450201  8  4 10 110       
PG23   2832.498164 -15542.939747  21329.966110     24.279993  7  6  4  91       
PG24  14444.967342 -17145.154007  13556.344879   -189.011105  3  6  6  99       
PG25  11317.069125 -15749.897403 -18343.892929    442.872818  6  6  7 108       
PG26 -20188.748021  -6857.831202 -16161.399228    240.779590  8  6  4  84       
PG27 -20897.262858  -9690.109301  13328.085027     37.326780  6  6  6  92       
PG28  -7624.570180 -18117.854236 -17888.109510     77.598775  6  5  2  83       
PG29   2625.571291 -18125.641708 -19259.837204   -599.443834  6  7  7  95       
PG30   2931.115223  22477.385685  13735.469977   -517.137887  5  6  5  91       
PG31 -13491.319051  -7791.576746 -21657.975610   -216.128197  4  5  5  81       
PG32 -15822.788515 -21219.370846   3437.250632   -476.697831  5  7  7  83       
*  2023  5 15  2 30  0.00000000
PG01 -13691.778354  18707.921354  12293.990952    185.282686  7  5  2  97       
PG02 -12208.346622 -12543.133183  20661.873607   -596.123923  5  5  6  78       
PG03 -20625.272592  12950.505107 -10581.087157   -303.014634  6  7  5 107       
PG04 -10339.240211  11139.682221 -21765.839437     41.699513  4  5  7 109       
PG05  25723.304377  -4180.946126  -5618.247539   -127.231072  7  8  5  95       
PG06   6965.968687  18470.546431 -17660.741316    588.037784  5  6  5 100       
PG07  -5700.448012  25641.654427   1565.664237    178.009121  7  7  5 115       
PG08 -19028.073636     39.031813  18617.562521   -122.467994  5  5  4 113       
PG09      5.289968  18571.424036 -19042.033051   -158.655875  5  5  4  91       
PG10  -8587.608112 -12859.638918  21809.736469    -36.957994  5  4  4  98       
PG11  14578.802294   4004.305995 -21830.351547   -197.217027  5  7  6  89       
PG12  22970.185871 -10464.348195  -8402.725375   -376.139513  8  7  5  71       
PG13  19859.500634   8849.937763  15218.755385    520.063233  3  5  3  88       
PG14   4989.928617  14695.827411  21570.021898     57.192253  3  6  7  86       
PG15  18791.048319  -2829.816000  18201.770008     39.618839  4  5  5  89       
PG16 -25500.078190  -1352.641162  -8410.654004   -500.932465  7  6  6 100       
PG17  11873.084938  22221.031357   8665.435970    714.819089  5  5  6 113       
PG18   4202.390657 -25762.196425   4439.866517   -266.640029  5  6  5  92       
PG19  17253.924564  20400.904241   -787.775274    317.011552  6  6  6  92       
PG20  22485.852579    621.730387 -13936.027295    433.533220  8  8  6  72       
PG21 -15445.228370  10103.778398  19320.897326    153.813879  7  4  3  77       
PG22 -18608.894874 -18784.113108  -2850.299925    481.455895  8  5 10  99       
PG23   5159.560486 -16090.573029  20456.898589     24.282784  6  6  5  87       
PG24  14360.088732 -15379.882219  15598.556446   -189.023599  2  6  5  98       
PG25  13258.046382 -16058.812390 -16645.960293    442.875295  6  6  7 100       
PG26 -18405.781263  -7597.133068 -17851.454933    240.779085  6  5  5  84       
PG27 -21741.069390 -10834.560597  10966.140087     37.319494  6  6  6  81       
PG28  -6980.033835 -19955.004149 -16105.492312     77.601866  5  5  2  81       
PG29   4119.491022 -16424.567700 -20495.755876   -599.445060  6  7  6 100       
PG30   2238.978519  23770.783352  11459.361451   -517.135874  5  6  4  86       
PG31 -12683.915192 -10073.364078 -21156.554534   -216.129013  3  5  5  91       
PG32 -15286.155785 -21001.719417   6207.772290   -476.706154  4  6  7 101       
*  2023  5 15  2 45  0.00000000
PG01 -13467.606786  17116.748445  14613.016436    185.280237  7  6  2 103       
PG02 -11817.890420 -14679.255044  19432.111692   -596.120453  5  5  6  91       
PG03 -21680.189753  13074.421881  -7951.680956   -303.004565  5  7  5 116       
PG04 -12100.365163   9380.990794 -21697.011941     41.708327  4  5  7 112       
PG05  25067.252236  -3716.100847  -8328.154416   -127.231990  7  8  5  98       
PG06   6401.236299  20309.554532 -15750.484787    588.037509  4  6  5 104       
PG07  -6007.977723  25535.926529  -1298.559503    178.000800  7  7  5 110       
PG08 -20470.498398  -1407.432138  17004.152574   -122.468587  5  5  4 113       
PG09  -1742.145200  17169.955081 -20247.782130   -158.648309  5  5  4 104       
PG10  -6232.264589 -13598.564375  22134.869035    -36.959676  6  3  4 101       
PG11  13889.672663   6398.317551 -21712.309559   -197.229448  5  7  6  86       
PG12  23776.492357 -10415.088371  -5685.185715   -376.143441  8  7  5  90       
PG13  20761.431883  10224.262196  13040.047853    520.068297  3  6  3  92       
PG14   2606.770618  15336.550125  21530.265402     57.203802  3  7  7  90       
PG15  20385.795909  -1488.869953  16639.661007     39.621922  4  5  5  92       
PG16 -24504.965870  -1748.022762 -10958.604198   -500.929538  6  6  6 109       
PG17  10986.913366  21566.509011  11242.586809    714.820592  5  6  6 115       
PG18   4506.862094 -26042.187305   1576.304911   -266.654338  6  7  5  99       
PG19  17040.839913  20456.824484   2073.650785    317.016218  5  6  5  90       
PG20  21042.005072   1594.503096 -15977.447149    433.531658  7  8  6  67       
PG21 -15271.524711   7907.604205  20555.614685    153.813660  6  4  3  61       
PG22 -18573.256153 -19102.713235     -7.009921    481.461459  8  6 10  84       
PG23   7341.909350 -16725.750031  19230.757702     24.285576  6  5  5  83       
PG24  14325.396562 -13396.647156  17360.910966   -189.036183  2  6  6 108       
PG25  14987.123962 -16404.426831 -14664.785303    442.877736  5  6  6 103       
PG26 -16498.156264  -8483.429358 -19240.534296    240.778579  5  5  5  98       
PG27 -22442.298237 -11739.326408   8417.365955     37.312195  6  6  6  82       
PG28  -6475.019868 -21610.363293 -14046.225890     77.604880  5  5  3  83       
PG29   5784.231931 -14719.604295 -21380.025802   -599.446362  6  8  6  77       
PG30   1672.586826  24835.993397   8984.337115   -517.133881  6  6  4  87       
PG31 -12012.520466 -12323.750730 -20294.556497   -216.129693  3  6  5  93       
PG32 -14515.751977 -20604.348153   8873.211724   -476.714516  4  6  7  98       
EOF
